#aV2013  4 13  0  0  0.00000000     288 DD+AD WGS84 FIT  NGA
## 1735 518400.00000000   300.00000000 56395 0.0000000000000
+   30     1  2  3  4  5  6  7  8  9 10 11 12 13 14 15 16 17
+         18 19 20 21 22 23 24 25 26 28 29 31 32  0  0  0  0
+          0  0  0  0  0  0  0  0  0  0  0  0  0  0  0  0  0
+          0  0  0  0  0  0  0  0  0  0  0  0  0  0  0  0  0
+          0  0  0  0  0  0  0  0  0  0  0  0  0  0  0  0  0
++         2  2  2  2  2  2  2  2  2  2  2  2  2  2  2  2  2
++         2  2  2  2  2  2  2  2  2  2  2  2  2  2  2  0  0
++         0  0  0  0  0  0  0  0  0  0  0  0  0  0  0  0  0
++         0  0  0  0  0  0  0  0  0  0  0  0  0  0  0  0  0
++         0  0  0  0  0  0  0  0  0  0  0  0  0  0  0  0  0
%c cc cc ccc ccc cccc cccc cccc cccc ccccc ccccc ccccc ccccc
%c cc cc ccc ccc cccc cccc cccc cccc ccccc ccccc ccccc ccccc
%f  0.0000000  0.000000000  0.00000000000  0.000000000000000
%f  0.0000000  0.000000000  0.00000000000  0.000000000000000
%i    0    0    0    0      0      0      0      0         0
%i    0    0    0    0      0      0      0      0         0
/*      NGA, ST. LOUIS,MO.                                  
/*   EPHEMERIS COMPUTED FROM  1 DAYS OF DATA
/*   EPOCHA SMOOTHER  
/* CCCCCCCCCCCCCCCCCCCCCCCCCCCCCCCCCCCCCCCCCCCCCCCCCCCCCCCCC
*  2013  4 13  8 55  0.00000000                                                 
P  1  15584.632259  13508.156199 -16797.316802     15.807857                    
V  1 -21333.658045   -542.673354 -20170.173322      0.034827                    
P  2   9002.105310 -14327.666110  20561.139560    427.059961                    
V  2  25655.674661   3494.261321  -9397.288389      0.018502                    
P  3  -6944.256318  24592.725001  -7305.558630    193.454426                    
V  3  -7221.704311   6025.831357  29412.850526      0.049518                    
P  4  21294.354934  -7903.156559  13714.091371    189.068010                    
V  4  17463.445196   4434.180428 -23790.271148      0.107878                    
P  5    367.974734 -22818.064139  13439.995029   -391.447303                    
V  5   9369.749439  14651.693199  24702.728417     -0.013044                    
P  6 -13049.022219  22832.686994  -1740.542700    275.651877                    
V  6  -4446.642119    -50.777029  31425.107760     -0.156907                    
P  7  25645.319125   6189.326306   4274.005271    202.164152                    
V  7  -5540.472932   1368.521746  31279.581915      0.042706                    
P  8  26082.091114   1689.998001  -6158.069855      5.592554                    
V  8   7386.399897   2749.064007  30926.514684      0.001499                    
P  9  13236.169663 -12095.396905 -20154.848544    233.740782                    
V  9  24119.605201   3263.297091  14214.931965      0.026857                    
P 10  12918.336117  -8777.192113  21157.950596    -76.490160                    
V 10  11314.943299  25240.018166   3923.516503     -0.011553                    
P 11   9060.949940  15117.030765 -20351.812719   -371.873038                    
V 11 -24574.428876   5590.231528  -6656.874090     -0.036913                    
P 12 -11268.511713 -24088.303364   2062.192870    128.126669                    
V 12    769.301177  -3154.272160 -31977.667764      0.020552                    
P 13  14190.977173   5756.842783  21573.760742    129.023635                    
V 13 -18154.207294  20864.478175   6213.706468     -0.035789                    
P 14 -20434.293754  12422.481720 -11206.977846    221.090176                    
V 14   7699.186903 -12549.991678 -27613.727761     -0.000233                    
P 15  -1290.804517 -20162.407422 -17140.313515   -115.098049                    
V 15  14212.721499 -16765.219331  18935.505253     -0.014507                    
P 16  -1726.268957  22084.042418  14376.890939   -252.546048                    
V 16  -8281.307745 -16501.183273  24657.233312      0.000785                    
P 17  20054.551387 -13238.096116 -10832.257442     30.289770                    
V 17  -6769.464742  12697.512246 -27729.980356     -0.040241                    
P 18 -17911.800105  -7293.335489 -17950.270768    248.648258                    
V 18  -7762.616237 -22361.372950  16115.207254      0.018332                    
P 19  -3757.518981  20903.964092 -15761.590108   -364.451691                    
V 19 -14859.666677  13607.129756  22116.594292     -0.031749                    
P 20  14585.308744  21806.645392   4214.835790     92.754894                    
V 20   -787.675301   6655.009892 -30367.131319      0.018491                    
P 21 -26594.086676  -3687.495591   1093.191656   -291.651896                    
V 21   1061.571665  -3163.191891  30713.879867     -0.021984                    
P 22 -14940.933384   5436.974262 -21089.144493    164.272634                    
V 22 -10900.993887 -25096.534718   1099.924480      0.012398                    
P 23   8250.466187  13844.544508  21109.848334     95.662322                    
V 23 -16732.340555  20888.350171  -7567.408578     -0.036571                    
P 24 -11941.532719 -14462.685486 -18831.594723     -4.425949                    
V 24  23906.831257    953.884462 -15860.081480     -0.006830                    
P 25 -16597.805260 -16976.018831  11963.006098     86.928320                    
V 25  -4437.279207 -14676.992366 -26788.249438      0.037165                    
P 26  11280.163539 -22230.257745  -9288.579338    -28.887087                    
V 26   8872.909234  -6804.205219  29407.621801      0.150220                    
P 28  15096.533778   -194.003855 -21295.108283    249.505881                    
V 28   9640.622728  26652.329908   6247.551590      0.033591                    
P 29 -14434.868246  -5870.467637  21558.442732    425.934972                    
V 29  16725.772107 -21499.159583   5403.714981      0.035558                    
P 31 -19533.964468   8408.689376  16259.245218    310.459500                    
V 31 -19831.356892  -3893.189845 -21773.190907      0.014661                    
P 32   7198.693284  25759.622169  -2160.065639   -550.000435                    
V 32  -3496.455864  -1836.527847 -31019.572838     -0.024479                    
EOF
